start=new Date('2022-02-06T00:00:00.000Z').valueOf();
sats=[{"MEAN_MOTION":"15.06405009","PERIAPSIS":"546.114","ELEMENT_SET_NO":"999","DECAY_DATE":null,"OBJECT_ID":"2020-035BC","OBJECT_TYPE":"PAYLOAD","FILE":"3292709","INCLINATION":"53.0530","NORAD_CAT_ID":"45707","MEAN_MOTION_DOT":"0.00005544","LAUNCH_DATE":"2020-06-04","EPOCH":"2022-02-05T08:33:46.009728","GP_ID":"195365887","BSTAR":"0.00039077000000","MEAN_ELEMENT_THEORY":"SGP4","CLASSIFICATION_TYPE":"U","COUNTRY_CODE":"US","REV_AT_EPOCH":"9407","RCS_SIZE":"LARGE","TLE_LINE1":"1 45707U 20035BC  22036.35678252  .00005544  00000-0  39077-3 0  9991","TIME_SYSTEM":"UTC","MEAN_ANOMALY":"288.6888","RA_OF_ASC_NODE":"260.4544","MEAN_MOTION_DDOT":"0.0000000000000","REF_FRAME":"TEME","ECCENTRICITY":"0.00015660","TLE_LINE2":"2 45707  53.0530 260.4544 0001566  71.4271 288.6888 15.06405009 94074","PERIOD":"95.592","EPHEMERIS_TYPE":"0","CENTER_NAME":"EARTH","SITE":"AFETR","SEMIMAJOR_AXIS":"6925.333","ARG_OF_PERICENTER":"71.4271","APOAPSIS":"548.283","OBJECT_NAME":"STARLINK-1412"},{"MEAN_MOTION_DOT":"0.00001172","LAUNCH_DATE":"2020-06-04","FILE":"3292845","INCLINATION":"53.0521","NORAD_CAT_ID":"45708","BSTAR":"0.00009755700000","MEAN_ELEMENT_THEORY":"SGP4","CLASSIFICATION_TYPE":"U","EPOCH":"2022-02-05T19:05:22.860672","GP_ID":"195375718","ELEMENT_SET_NO":"999","MEAN_MOTION":"15.06402218","PERIAPSIS":"546.045","DECAY_DATE":null,"OBJECT_ID":"2020-035BD","OBJECT_TYPE":"PAYLOAD","EPHEMERIS_TYPE":"0","PERIOD":"95.592","SITE":"AFETR","CENTER_NAME":"EARTH","ECCENTRICITY":"0.00016780","TLE_LINE2":"2 45708  53.0521 258.4822 0001678  77.1775 282.9401 15.06402218 93736","OBJECT_NAME":"STARLINK-1418","SEMIMAJOR_AXIS":"6925.342","ARG_OF_PERICENTER":"77.1775","APOAPSIS":"548.369","RCS_SIZE":"LARGE","TLE_LINE1":"1 45708U 20035BD  22036.79540348  .00001172  00000-0  97557-4 0  9995","COUNTRY_CODE":"US","REV_AT_EPOCH":"9373","MEAN_ANOMALY":"282.9401","RA_OF_ASC_NODE":"258.4822","REF_FRAME":"TEME","MEAN_MOTION_DDOT":"0.0000000000000","TIME_SYSTEM":"UTC"},{"EPOCH":"2022-02-05T19:58:27.687360","GP_ID":"195377233","BSTAR":"-0.00000306970000","MEAN_ELEMENT_THEORY":"SGP4","CLASSIFICATION_TYPE":"U","INCLINATION":"53.0552","FILE":"3292932","NORAD_CAT_ID":"45709","MEAN_MOTION_DOT":"-0.00000327","LAUNCH_DATE":"2020-06-04","DECAY_DATE":null,"OBJECT_ID":"2020-035BE","OBJECT_TYPE":"PAYLOAD","MEAN_MOTION":"15.06390268","PERIAPSIS":"546.163","ELEMENT_SET_NO":"999","SEMIMAJOR_AXIS":"6925.378","ARG_OF_PERICENTER":"65.0868","APOAPSIS":"548.324","OBJECT_NAME":"STARLINK-1421","ECCENTRICITY":"0.00015600","TLE_LINE2":"2 45709  53.0552 258.3153 0001560  65.0868 295.0283 15.06390268 93730","PERIOD":"95.593","EPHEMERIS_TYPE":"0","CENTER_NAME":"EARTH","SITE":"AFETR","TIME_SYSTEM":"UTC","MEAN_ANOMALY":"295.0283","RA_OF_ASC_NODE":"258.3153","REF_FRAME":"TEME","MEAN_MOTION_DDOT":"0.0000000000000","COUNTRY_CODE":"US","REV_AT_EPOCH":"9373","RCS_SIZE":"LARGE","TLE_LINE1":"1 45709U 20035BE  22036.83226490 -.00000327  00000-0 -30697-5 0  9996"},{"OBJECT_ID":"2020-035BF","OBJECT_TYPE":"PAYLOAD","DECAY_DATE":null,"ELEMENT_SET_NO":"999","MEAN_MOTION":"15.06411451","PERIAPSIS":"545.762","MEAN_ELEMENT_THEORY":"SGP4","BSTAR":"0.00050657000000","CLASSIFICATION_TYPE":"U","GP_ID":"195377532","EPOCH":"2022-02-05T19:53:11.230080","MEAN_MOTION_DOT":"0.00007274","LAUNCH_DATE":"2020-06-04","FILE":"3292932","INCLINATION":"53.0510","NORAD_CAT_ID":"45710","RA_OF_ASC_NODE":"258.3288","MEAN_ANOMALY":"304.5649","REF_FRAME":"TEME","MEAN_MOTION_DDOT":"0.0000000000000","TIME_SYSTEM":"UTC","RCS_SIZE":"LARGE","TLE_LINE1":"1 45710U 20035BF  22036.82860220  .00007274  00000-0  50657-3 0  9994","COUNTRY_CODE":"US","REV_AT_EPOCH":"9373","OBJECT_NAME":"STARLINK-1423","APOAPSIS":"548.595","SEMIMAJOR_AXIS":"6925.313","ARG_OF_PERICENTER":"55.5533","PERIOD":"95.591","EPHEMERIS_TYPE":"0","CENTER_NAME":"EARTH","SITE":"AFETR","TLE_LINE2":"2 45710  53.0510 258.3288 0002046  55.5533 304.5649 15.06411451 93738","ECCENTRICITY":"0.00020460"},{"TIME_SYSTEM":"UTC","MEAN_ANOMALY":"299.4541","RA_OF_ASC_NODE":"260.5047","MEAN_MOTION_DDOT":"0.0000000000000","REF_FRAME":"TEME","COUNTRY_CODE":"US","REV_AT_EPOCH":"9406","RCS_SIZE":"LARGE","TLE_LINE1":"1 45711U 20035BG  22036.34570467  .00001570  00000-0  12422-3 0  9994","ARG_OF_PERICENTER":"60.6630","SEMIMAJOR_AXIS":"6925.318","APOAPSIS":"548.445","OBJECT_NAME":"STARLINK-1433","ECCENTRICITY":"0.00018220","TLE_LINE2":"2 45711  53.0535 260.5047 0001822  60.6630 299.4541 15.06409928 94066","PERIOD":"95.592","EPHEMERIS_TYPE":"0","CENTER_NAME":"EARTH","SITE":"AFETR","DECAY_DATE":null,"OBJECT_ID":"2020-035BG","OBJECT_TYPE":"PAYLOAD","MEAN_MOTION":"15.06409928","PERIAPSIS":"545.921","ELEMENT_SET_NO":"999","EPOCH":"2022-02-05T08:17:48.883488","GP_ID":"195365388","BSTAR":"0.00012422000000","MEAN_ELEMENT_THEORY":"SGP4","CLASSIFICATION_TYPE":"U","FILE":"3292709","INCLINATION":"53.0535","NORAD_CAT_ID":"45711","MEAN_MOTION_DOT":"0.00001570","LAUNCH_DATE":"2020-06-04"},{"DECAY_DATE":null,"OBJECT_TYPE":"PAYLOAD","OBJECT_ID":"2020-035BH","ELEMENT_SET_NO":"999","MEAN_MOTION":"15.06411972","PERIAPSIS":"546.160","BSTAR":"0.00054239000000","MEAN_ELEMENT_THEORY":"SGP4","CLASSIFICATION_TYPE":"U","EPOCH":"2022-02-05T19:21:19.795104","GP_ID":"195375785","MEAN_MOTION_DOT":"0.00007809","LAUNCH_DATE":"2020-06-04","FILE":"3292851","INCLINATION":"53.0527","NORAD_CAT_ID":"45712","MEAN_ANOMALY":"287.5718","RA_OF_ASC_NODE":"258.4404","MEAN_MOTION_DDOT":"0.0000000000000","REF_FRAME":"TEME","TIME_SYSTEM":"UTC","RCS_SIZE":"LARGE","TLE_LINE1":"1 45712U 20035BH  22036.80647911  .00007809  00000-0  54239-3 0  9998","COUNTRY_CODE":"US","REV_AT_EPOCH":"9373","OBJECT_NAME":"STARLINK-1434","SEMIMAJOR_AXIS":"6925.312","ARG_OF_PERICENTER":"72.5431","APOAPSIS":"548.194","PERIOD":"95.591","EPHEMERIS_TYPE":"0","SITE":"AFETR","CENTER_NAME":"EARTH","ECCENTRICITY":"0.00014680","TLE_LINE2":"2 45712  53.0527 258.4404 0001468  72.5431 287.5718 15.06411972 93737"},{"FILE":"3292851","INCLINATION":"53.0536","NORAD_CAT_ID":"45713","MEAN_MOTION_DOT":"-0.00001515","LAUNCH_DATE":"2020-06-04","EPOCH":"2022-02-05T19:50:29.320800","GP_ID":"195375362","BSTAR":"-0.00008282000000","MEAN_ELEMENT_THEORY":"SGP4","CLASSIFICATION_TYPE":"U","MEAN_MOTION":"15.06395352","PERIAPSIS":"546.165","ELEMENT_SET_NO":"999","DECAY_DATE":null,"OBJECT_TYPE":"PAYLOAD","OBJECT_ID":"2020-035BJ","ECCENTRICITY":"0.00015340","TLE_LINE2":"2 45713  53.0536 278.3420 0001534  71.1752 288.9403 15.06395352 93450","EPHEMERIS_TYPE":"0","PERIOD":"95.592","SITE":"AFETR","CENTER_NAME":"EARTH","SEMIMAJOR_AXIS":"6925.363","ARG_OF_PERICENTER":"71.1752","APOAPSIS":"548.290","OBJECT_NAME":"STARLINK-1436","COUNTRY_CODE":"US","REV_AT_EPOCH":"9345","RCS_SIZE":"LARGE","TLE_LINE1":"1 45713U 20035BJ  22036.82672825 -.00001515  00000-0 -82820-4 0  9991","TIME_SYSTEM":"UTC","MEAN_ANOMALY":"288.9403","RA_OF_ASC_NODE":"278.3420","REF_FRAME":"TEME","MEAN_MOTION_DDOT":"0.0000000000000"},{"REV_AT_EPOCH":"9373","COUNTRY_CODE":"US","TLE_LINE1":"1 45714U 20035BK  22036.81750947 -.00000715  00000-0 -29085-4 0  9998","RCS_SIZE":"LARGE","TIME_SYSTEM":"UTC","REF_FRAME":"TEME","MEAN_MOTION_DDOT":"0.0000000000000","RA_OF_ASC_NODE":"258.3886","MEAN_ANOMALY":"285.9005","TLE_LINE2":"2 45714  53.0525 258.3886 0001671  74.2169 285.9005 15.06398458 93737","ECCENTRICITY":"0.00016710","CENTER_NAME":"EARTH","SITE":"AFETR","PERIOD":"95.592","EPHEMERIS_TYPE":"0","APOAPSIS":"548.376","SEMIMAJOR_AXIS":"6925.353","ARG_OF_PERICENTER":"74.2169","OBJECT_NAME":"STARLINK-1437","PERIAPSIS":"546.061","MEAN_MOTION":"15.06398458","ELEMENT_SET_NO":"999","OBJECT_TYPE":"PAYLOAD","OBJECT_ID":"2020-035BK","DECAY_DATE":null,"NORAD_CAT_ID":"45714","FILE":"3292851","INCLINATION":"53.0525","LAUNCH_DATE":"2020-06-04","MEAN_MOTION_DOT":"-0.00000715","GP_ID":"195375791","EPOCH":"2022-02-05T19:37:12.818208","CLASSIFICATION_TYPE":"U","MEAN_ELEMENT_THEORY":"SGP4","BSTAR":"-0.00002908500000"},{"LAUNCH_DATE":"2020-06-04","MEAN_MOTION_DOT":"0.00117993","NORAD_CAT_ID":"45716","FILE":"3292709","INCLINATION":"52.9969","CLASSIFICATION_TYPE":"U","MEAN_ELEMENT_THEORY":"SGP4","BSTAR":"0.00051869000000","GP_ID":"195365888","EPOCH":"2022-02-05T09:10:10.356384","ELEMENT_SET_NO":"999","PERIAPSIS":"317.266","MEAN_MOTION":"15.83738871","OBJECT_TYPE":"PAYLOAD","OBJECT_ID":"2020-035BM","DECAY_DATE":null,"CENTER_NAME":"EARTH","SITE":"AFETR","PERIOD":"90.924","EPHEMERIS_TYPE":"0","TLE_LINE2":"2 45716  52.9969  65.4591 0003903 341.7010  18.3871 15.83738871 96785","ECCENTRICITY":"0.00039030","OBJECT_NAME":"STARLINK-1439","APOAPSIS":"322.494","SEMIMAJOR_AXIS":"6698.015","ARG_OF_PERICENTER":"341.7010","TLE_LINE1":"1 45716U 20035BM  22036.38206431  .00117993  00000-0  51869-3 0  9995","RCS_SIZE":"LARGE","REV_AT_EPOCH":"9678","COUNTRY_CODE":"US","REF_FRAME":"TEME","MEAN_MOTION_DDOT":"0.0000000000000","RA_OF_ASC_NODE":"65.4591","MEAN_ANOMALY":"18.3871","TIME_SYSTEM":"UTC"},{"ELEMENT_SET_NO":"999","PERIAPSIS":"546.154","MEAN_MOTION":"15.06402204","OBJECT_ID":"2020-038A","OBJECT_TYPE":"PAYLOAD","DECAY_DATE":null,"LAUNCH_DATE":"2020-06-13","MEAN_MOTION_DOT":"-0.00004372","NORAD_CAT_ID":"45730","FILE":"3292709","INCLINATION":"53.0543","CLASSIFICATION_TYPE":"U","MEAN_ELEMENT_THEORY":"SGP4","BSTAR":"-0.00027474000000","GP_ID":"195365639","EPOCH":"2022-02-05T11:55:25.131360","TLE_LINE1":"1 45730U 20038A   22036.49681865 -.00004372  00000-0 -27474-3 0  9997","RCS_SIZE":"LARGE","REV_AT_EPOCH":"9114","COUNTRY_CODE":"US","MEAN_MOTION_DDOT":"0.0000000000000","REF_FRAME":"TEME","RA_OF_ASC_NODE":"99.8111","MEAN_ANOMALY":"300.6412","TIME_SYSTEM":"UTC","CENTER_NAME":"EARTH","SITE":"AFETR","EPHEMERIS_TYPE":"0","PERIOD":"95.592","TLE_LINE2":"2 45730  53.0543  99.8111 0001520  59.4727 300.6412 15.06402204 91147","ECCENTRICITY":"0.00015200","OBJECT_NAME":"STARLINK-1461","APOAPSIS":"548.259","ARG_OF_PERICENTER":"59.4727","SEMIMAJOR_AXIS":"6925.342"}];
